{
  "type": "FeatureCollection",
  "features": [
    {
      "type": "Feature",
      "properties": {
        "norad_id": 46277,
        "name": "NEMO-HD",
        "group": "resource",
        "lat": 65.44681909396566,
        "lon": 44.57556427492612,
        "alt_km": 437.23489867500575,
        "timestamp": "2025-12-27T18:38:03.137139+00:00",
        "meta_object_name": "NEMO-HD",
        "meta_object_id": "2020-061F",
        "meta_epoch": "2025-12-27T12:06:41.484384",
        "meta_mean_motion": 15.4063543,
        "meta_eccentricity": 9.44e-05,
        "meta_inclination": 97.2188,
        "meta_ra_of_asc_node": 60.4153,
        "meta_arg_of_pericenter": 55.6577,
        "meta_mean_anomaly": 304.4759,
        "meta_ephemeris_type": 0,
        "meta_classification_type": "U",
        "meta_norad_cat_id": 46277,
        "meta_element_set_no": 999,
        "meta_rev_at_epoch": 29551,
        "meta_bstar": 0.00029774,
        "meta_mean_motion_dot": 0.00012053,
        "meta_mean_motion_ddot": 0,
        "tle_line1": "1 46277U 20061F   25361.50464681  .00012053  00000+0  29774-3 0  9998",
        "tle_line2": "2 46277  97.2188  60.4153 0000944  55.6577 304.4759 15.40635430295519"
      },
      "geometry": {
        "type": "Point",
        "coordinates": [
          44.57556427492612,
          65.44681909396566
        ]
      }
    },
    {
      "type": "Feature",
      "properties": {
        "norad_id": 46984,
        "name": "SENTINEL-6A",
        "group": "resource",
        "lat": -42.970345802202665,
        "lon": 106.6082139407153,
        "alt_km": 1338.990832803801,
        "timestamp": "2025-12-27T18:38:03.137150+00:00",
        "meta_object_name": "SENTINEL-6A",
        "meta_object_id": "2020-086A",
        "meta_epoch": "2025-12-27T11:23:24.082656",
        "meta_mean_motion": 12.80930854,
        "meta_eccentricity": 0.0007773,
        "meta_inclination": 66.0404,
        "meta_ra_of_asc_node": 131.7036,
        "meta_arg_of_pericenter": 269.4721,
        "meta_mean_anomaly": 90.5403,
        "meta_ephemeris_type": 0,
        "meta_classification_type": "U",
        "meta_norad_cat_id": 46984,
        "meta_element_set_no": 999,
        "meta_rev_at_epoch": 23833,
        "meta_bstar": 9.265e-05,
        "meta_mean_motion_dot": -4e-07,
        "meta_mean_motion_ddot": 0,
        "tle_line1": "1 46984U 20086A   25361.47458429 -.00000040  00000+0  92650-4 0  9997",
        "tle_line2": "2 46984  66.0404 131.7036 0007773 269.4721  90.5403 12.80930854238339"
      },
      "geometry": {
        "type": "Point",
        "coordinates": [
          106.6082139407153,
          -42.970345802202665
        ]
      }
    },
    {
      "type": "Feature",
      "properties": {
        "norad_id": 48079,
        "name": "GAOFEN-12 02",
        "group": "resource",
        "lat": 2.8344923474599746,
        "lon": 176.10916543598685,
        "alt_km": 630.4720459168657,
        "timestamp": "2025-12-27T18:38:03.137160+00:00",
        "meta_object_name": "GAOFEN-12 02",
        "meta_object_id": "2021-026A",
        "meta_epoch": "2025-12-27T12:58:19.433280",
        "meta_mean_motion": 14.80692968,
        "meta_eccentricity": 0.0003519,
        "meta_inclination": 97.9859,
        "meta_ra_of_asc_node": 355.4761,
        "meta_arg_of_pericenter": 71.4335,
        "meta_mean_anomaly": 288.7259,
        "meta_ephemeris_type": 0,
        "meta_classification_type": "U",
        "meta_norad_cat_id": 48079,
        "meta_element_set_no": 999,
        "meta_rev_at_epoch": 25636,
        "meta_bstar": 8.7931e-05,
        "meta_mean_motion_dot": 6.23e-06,
        "meta_mean_motion_ddot": 0,
        "tle_line1": "1 48079U 21026A   25361.54050270  .00000623  00000+0  87931-4 0  9991",
        "tle_line2": "2 48079  97.9859 355.4761 0003519  71.4335 288.7259 14.80692968256365"
      },
      "geometry": {
        "type": "Point",
        "coordinates": [
          176.10916543598685,
          2.8344923474599746
        ]
      }
    },
    {
      "type": "Feature",
      "properties": {
        "norad_id": 48268,
        "name": "PLEIADES NEO 3",
        "group": "resource",
        "lat": -61.72934862372674,
        "lon": 88.9532024084388,
        "alt_km": 632.0511510546585,
        "timestamp": "2025-12-27T18:38:03.137170+00:00",
        "meta_object_name": "PLEIADES NEO 3",
        "meta_object_id": "2021-034A",
        "meta_epoch": "2025-12-27T12:26:02.391072",
        "meta_mean_motion": 14.8167572,
        "meta_eccentricity": 0.0001376,
        "meta_inclination": 97.8941,
        "meta_ra_of_asc_node": 73.747,
        "meta_arg_of_pericenter": 87.8524,
        "meta_mean_anomaly": 272.2846,
        "meta_ephemeris_type": 0,
        "meta_classification_type": "U",
        "meta_norad_cat_id": 48268,
        "meta_element_set_no": 999,
        "meta_rev_at_epoch": 25223,
        "meta_bstar": 8.899e-05,
        "meta_mean_motion_dot": 6.48e-06,
        "meta_mean_motion_ddot": 0,
        "tle_line1": "1 48268U 21034A   25361.51808323  .00000648  00000+0  88990-4 0  9990",
        "tle_line2": "2 48268  97.8941  73.7470 0001376  87.8524 272.2846 14.81675720252233"
      },
      "geometry": {
        "type": "Point",
        "coordinates": [
          88.9532024084388,
          -61.72934862372674
        ]
      }
    },
    {
      "type": "Feature",
      "properties": {
        "norad_id": 49070,
        "name": "PLEIADES NEO 4",
        "group": "resource",
        "lat": 61.55906370560548,
        "lon": -91.15959777428661,
        "alt_km": 617.2743218138621,
        "timestamp": "2025-12-27T18:38:03.137181+00:00",
        "meta_object_name": "PLEIADES NEO 4",
        "meta_object_id": "2021-073E",
        "meta_epoch": "2025-12-27T11:37:24.105792",
        "meta_mean_motion": 14.8167299,
        "meta_eccentricity": 0.0001308,
        "meta_inclination": 97.894,
        "meta_ra_of_asc_node": 73.7095,
        "meta_arg_of_pericenter": 88.0724,
        "meta_mean_anomaly": 272.0639,
        "meta_ephemeris_type": 0,
        "meta_classification_type": "U",
        "meta_norad_cat_id": 49070,
        "meta_element_set_no": 999,
        "meta_rev_at_epoch": 23594,
        "meta_bstar": 1.8665e-05,
        "meta_mean_motion_dot": 9.5e-07,
        "meta_mean_motion_ddot": 0,
        "tle_line1": "1 49070U 21073E   25361.48430678  .00000095  00000+0  18665-4 0  9993",
        "tle_line2": "2 49070  97.8940  73.7095 0001308  88.0724 272.0639 14.81672990235940"
      },
      "geometry": {
        "type": "Point",
        "coordinates": [
          -91.15959777428661,
          61.55906370560548
        ]
      }
    },
    {
      "type": "Feature",
      "properties": {
        "norad_id": 49260,
        "name": "LANDSAT 9",
        "group": "resource",
        "lat": -65.16124992914652,
        "lon": -128.50024215513446,
        "alt_km": 710.4304279207981,
        "timestamp": "2025-12-27T18:38:03.137191+00:00",
        "meta_object_name": "LANDSAT 9",
        "meta_object_id": "2021-088A",
        "meta_epoch": "2025-12-27T04:19:19.840800",
        "meta_mean_motion": 14.57112985,
        "meta_eccentricity": 0.00011037,
        "meta_inclination": 98.2075,
        "meta_ra_of_asc_node": 69.0804,
        "meta_arg_of_pericenter": 93.7467,
        "meta_mean_anomaly": 266.3858,
        "meta_ephemeris_type": 0,
        "meta_classification_type": "U",
        "meta_norad_cat_id": 49260,
        "meta_element_set_no": 999,
        "meta_rev_at_epoch": 22595,
        "meta_bstar": 0.00012601018,
        "meta_mean_motion_dot": 5.23e-06,
        "meta_mean_motion_ddot": 0,
        "tle_line1": "1 49260U 21088A   25361.18009075  .00000523  00000+0  12601-3 0  9999",
        "tle_line2": "2 49260  98.2075  69.0804 0001103  93.7467 266.3858 14.57112985225956"
      },
      "geometry": {
        "type": "Point",
        "coordinates": [
          -128.50024215513446,
          -65.16124992914652
        ]
      }
    },
    {
      "type": "Feature",
      "properties": {
        "norad_id": 51444,
        "name": "CSG-2",
        "group": "resource",
        "lat": 3.8358762590208153,
        "lon": 3.40490770576883,
        "alt_km": 625.0493977972319,
        "timestamp": "2025-12-27T18:38:03.137201+00:00",
        "meta_object_name": "CSG-2",
        "meta_object_id": "2022-008A",
        "meta_epoch": "2025-12-27T12:58:55.221888",
        "meta_mean_motion": 14.82160029,
        "meta_eccentricity": 0.0001462,
        "meta_inclination": 97.8809,
        "meta_ra_of_asc_node": 182.6409,
        "meta_arg_of_pericenter": 85.3058,
        "meta_mean_anomaly": 274.8322,
        "meta_ephemeris_type": 0,
        "meta_classification_type": "U",
        "meta_norad_cat_id": 51444,
        "meta_element_set_no": 999,
        "meta_rev_at_epoch": 21116,
        "meta_bstar": 0.00011681,
        "meta_mean_motion_dot": 8.78e-06,
        "meta_mean_motion_ddot": 0,
        "tle_line1": "1 51444U 22008A   25361.54091692  .00000878  00000+0  11681-3 0  9995",
        "tle_line2": "2 51444  97.8809 182.6409 0001462  85.3058 274.8322 14.82160029211165"
      },
      "geometry": {
        "type": "Point",
        "coordinates": [
          3.40490770576883,
          3.8358762590208153
        ]
      }
    }
  ]
}